NAVSTAR 51 (USA 166)    
1 27663U 03005A   26090.34694236 -.00000039  00000+0  00000+0 0  9997
2 27663  54.9001 218.0599 0148510  52.8714 322.3869  2.00564767169753
NAVSTAR 54 (USA 177)    
1 28190U 04009A   26090.61512705 -.00000033  00000+0  00000+0 0  9992
2 28190  54.8949 278.8194 0112317 169.8815 194.1241  2.00557212161399
NAVSTAR 56 (USA 180)    
1 28474U 04045A   26090.32282052 -.00000080  00000+0  00000+0 0  9996
2 28474  55.1797 328.0336 0170415 313.8624 264.0090  2.00574746156863
NAVSTAR 57 (USA 183)    
1 28874U 05038A   26090.57102097 -.00000032  00000+0  00000+0 0  9997
2 28874  54.9421 276.3079 0128138 295.6648  61.6866  2.00571105150272
METEOSAT-9 (MSG-2)      
1 28912U 05049B   26090.04948723  .00000116  00000+0  00000+0 0  9990
2 28912   9.1872  54.9206 0000392 169.9861  26.9682  1.00272415  6215
NAVSTAR 59 (USA 192)    
1 29601U 06052A   26090.63710628 -.00000037  00000+0  00000+0 0  9990
2 29601  54.9503 217.0788 0087201  89.8595 271.1000  2.00553493141852
NAVSTAR 60 (USA 196)    
1 32260U 07047A   26090.94280973  .00000005  00000+0  00000+0 0  9993
2 32260  54.0383  83.2475 0164039  86.1941 275.6919  2.00559259135262
NAVSTAR 61 (USA 199)    
1 32384U 07062A   26090.00936110 -.00000028  00000+0  00000+0 0  9991
2 32384  55.0946 277.2932 0033779 161.1884  12.2320  2.00555203133943
GOES 14                 
1 35491U 09033A   26091.52348867  .00000051  00000+0  00000+0 0  9992
2 35491   1.4927  83.9748 0001778 288.5808 190.7305  1.00110429  5826
EWS-G2 (GOES 15)        
1 36411U 10008A   26091.47910120  .00000014  00000+0  00000+0 0  9999
2 36411   1.0773  84.3862 0003058  18.0206 323.1896  1.00271184 58862
GSAT0101 (GALILEO-PFM)  
1 37846U 11060A   26088.07290064 -.00000099  00000+0  00000+0 0  9995
2 37846  57.0192 343.9362 0004087  14.3377 345.7094  1.70475671 89757
GSAT0102 (GALILEO-FM2)  
1 37847U 11060B   26088.28683882 -.00000099  00000+0  00000+0 0  9993
2 37847  57.0196 343.9307 0005186  19.7969 157.0740  1.70475561 89769
LUCH-5A                 
1 37951U 11074B   26091.36717194 -.00000053  00000+0  00000+0 0  9991
2 37951   8.5601  74.9232 0003213 279.4411 134.4794  1.00270606 52282
METEOSAT-10 (MSG-3)     
1 38552U 12035B   26091.23586552 -.00000014  00000+0  00000+0 0  9992
2 38552   4.4907  61.3402 0002443 290.7571 282.4657  1.00272409 50081
METOP-B                 
1 38771U 12049A   26091.46286067  .00000140  00000+0  83851-4 0  9992
2 38771  98.6592 144.4633 0002239 179.7697 180.3482 14.21425862702363
NAVSTAR 67 (USA 239)    
1 38833U 12053A   26086.05261588 -.00000004  00000+0  00000+0 0  9996
2 38833  53.5685 146.9649 0177237  64.9128 296.9786  2.00566077 97797
GSAT0103 (GALILEO-FM3)  
1 38857U 12055A   26088.69991282  .00000044  00000+0  00000+0 0  9990
2 38857  55.7559 103.7249 0005865 290.8335  69.1577  1.70473377 83655
