[{"OBJECT_NAME":"GPS BIIR-08","OBJECT_ID":"2003-005A","EPOCH":"2026-03-31T08:19:35.819904","MEAN_MOTION":2.00564767,"ECCENTRICITY":0.014851,"INCLINATION":54.9001,"RA_OF_ASC_NODE":218.0599,"ARG_OF_PERICENTER":52.8714,"MEAN_ANOMALY":322.3869,"EPHEMERIS_TYPE":0,"CLASSIFICATION_TYPE":"U","NORAD_CAT_ID":27663,"ELEMENT_SET_NO":999,"REV_AT_EPOCH":16975,"BSTAR":0,"MEAN_MOTION_DOT":-3.9e-7,"MEAN_MOTION_DDOT":0},{"OBJECT_NAME":"GPS BIIR-11","OBJECT_ID":"2004-009A","EPOCH":"2026-03-31T14:45:46.977120","MEAN_MOTION":2.00557212,"ECCENTRICITY":0.01123176,"INCLINATION":54.8949,"RA_OF_ASC_NODE":278.8194,"ARG_OF_PERICENTER":169.8815,"MEAN_ANOMALY":194.1241,"EPHEMERIS_TYPE":0,"CLASSIFICATION_TYPE":"U","NORAD_CAT_ID":28190,"ELEMENT_SET_NO":999,"REV_AT_EPOCH":16139,"BSTAR":0,"MEAN_MOTION_DOT":-3.3e-7,"MEAN_MOTION_DDOT":0},{"OBJECT_NAME":"GPS BIIR-13","OBJECT_ID":"2004-045A","EPOCH":"2026-03-31T07:44:51.692928","MEAN_MOTION":2.00574746,"ECCENTRICITY":0.0170415,"INCLINATION":55.1797,"RA_OF_ASC_NODE":328.0336,"ARG_OF_PERICENTER":313.8624,"MEAN_ANOMALY":264.009,"EPHEMERIS_TYPE":0,"CLASSIFICATION_TYPE":"U","NORAD_CAT_ID":28474,"ELEMENT_SET_NO":999,"REV_AT_EPOCH":15686,"BSTAR":0,"MEAN_MOTION_DOT":-8.0e-7,"MEAN_MOTION_DDOT":0},{"OBJECT_NAME":"GPS BIIR-14M","OBJECT_ID":"2005-038A","EPOCH":"2026-03-31T13:42:16.211808","MEAN_MOTION":2.00571105,"ECCENTRICITY":0.01281384,"INCLINATION":54.9421,"RA_OF_ASC_NODE":276.3079,"ARG_OF_PERICENTER":295.6648,"MEAN_ANOMALY":61.6866,"EPHEMERIS_TYPE":0,"CLASSIFICATION_TYPE":"U","NORAD_CAT_ID":28874,"ELEMENT_SET_NO":999,"REV_AT_EPOCH":15027,"BSTAR":0,"MEAN_MOTION_DOT":-3.2e-7,"MEAN_MOTION_DDOT":0},{"OBJECT_NAME":"METEOSAT-9 (MSG-2)","OBJECT_ID":"2005-049B","EPOCH":"2026-03-31T01:11:15.696672","MEAN_MOTION":1.00272415,"ECCENTRICITY":3.92e-5,"INCLINATION":9.1872,"RA_OF_ASC_NODE":54.9206,"ARG_OF_PERICENTER":169.9861,"MEAN_ANOMALY":26.9682,"EPHEMERIS_TYPE":0,"CLASSIFICATION_TYPE":"U","NORAD_CAT_ID":28912,"ELEMENT_SET_NO":999,"REV_AT_EPOCH":621,"BSTAR":0,"MEAN_MOTION_DOT":1.16e-6,"MEAN_MOTION_DDOT":0},{"OBJECT_NAME":"GPS BIIR-16M","OBJECT_ID":"2006-052A","EPOCH":"2026-03-31T15:17:25.982592","MEAN_MOTION":2.00553493,"ECCENTRICITY":0.00872015,"INCLINATION":54.9503,"RA_OF_ASC_NODE":217.0788,"ARG_OF_PERICENTER":89.8595,"MEAN_ANOMALY":271.1,"EPHEMERIS_TYPE":0,"CLASSIFICATION_TYPE":"U","NORAD_CAT_ID":29601,"ELEMENT_SET_NO":999,"REV_AT_EPOCH":14185,"BSTAR":0,"MEAN_MOTION_DOT":-3.7e-7,"MEAN_MOTION_DDOT":0},{"OBJECT_NAME":"GPS BIIR-17M","OBJECT_ID":"2007-047A","EPOCH":"2026-03-31T22:37:38.760672","MEAN_MOTION":2.00559259,"ECCENTRICITY":0.0164039,"INCLINATION":54.0383,"RA_OF_ASC_NODE":83.2475,"ARG_OF_PERICENTER":86.1941,"MEAN_ANOMALY":275.6919,"EPHEMERIS_TYPE":0,"CLASSIFICATION_TYPE":"U","NORAD_CAT_ID":32260,"ELEMENT_SET_NO":999,"REV_AT_EPOCH":13526,"BSTAR":0,"MEAN_MOTION_DOT":5.0e-8,"MEAN_MOTION_DDOT":0},{"OBJECT_NAME":"GPS BIIR-18M","OBJECT_ID":"2007-062A","EPOCH":"2026-03-31T00:13:28.799040","MEAN_MOTION":2.00555203,"ECCENTRICITY":0.00337799,"INCLINATION":55.0946,"RA_OF_ASC_NODE":277.2932,"ARG_OF_PERICENTER":161.1884,"MEAN_ANOMALY":12.232,"EPHEMERIS_TYPE":0,"CLASSIFICATION_TYPE":"U","NORAD_CAT_ID":32384,"ELEMENT_SET_NO":999,"REV_AT_EPOCH":13394,"BSTAR":0,"MEAN_MOTION_DOT":-2.8e-7,"MEAN_MOTION_DDOT":0},{"OBJECT_NAME":"GOES 14","OBJECT_ID":"2009-033A","EPOCH":"2026-04-01T12:33:49.421088","MEAN_MOTION":1.00110429,"ECCENTRICITY":0.0001778,"INCLINATION":1.4927,"RA_OF_ASC_NODE":83.9748,"ARG_OF_PERICENTER":288.5808,"MEAN_ANOMALY":190.7305,"EPHEMERIS_TYPE":0,"CLASSIFICATION_TYPE":"U","NORAD_CAT_ID":35491,"ELEMENT_SET_NO":999,"REV_AT_EPOCH":582,"BSTAR":0,"MEAN_MOTION_DOT":5.1e-7,"MEAN_MOTION_DDOT":0},{"OBJECT_NAME":"GOES 15","OBJECT_ID":"2010-008A","EPOCH":"2026-04-01T11:29:54.343680","MEAN_MOTION":1.00271184,"ECCENTRICITY":0.0003058,"INCLINATION":1.0773,"RA_OF_ASC_NODE":84.3862,"ARG_OF_PERICENTER":18.0206,"MEAN_ANOMALY":323.1896,"EPHEMERIS_TYPE":0,"CLASSIFICATION_TYPE":"U","NORAD_CAT_ID":36411,"ELEMENT_SET_NO":999,"REV_AT_EPOCH":5886,"BSTAR":0,"MEAN_MOTION_DOT":1.4e-7,"MEAN_MOTION_DDOT":0},{"OBJECT_NAME":"GSAT0101 (GALILEO-PFM)","OBJECT_ID":"2011-060A","EPOCH":"2026-03-29T01:44:58.615296","MEAN_MOTION":1.70475671,"ECCENTRICITY":0.00040876,"INCLINATION":57.0192,"RA_OF_ASC_NODE":343.9362,"ARG_OF_PERICENTER":14.3377,"MEAN_ANOMALY":345.7094,"EPHEMERIS_TYPE":0,"CLASSIFICATION_TYPE":"U","NORAD_CAT_ID":37846,"ELEMENT_SET_NO":999,"REV_AT_EPOCH":8975,"BSTAR":0,"MEAN_MOTION_DOT":-9.9e-7,"MEAN_MOTION_DDOT":0},{"OBJECT_NAME":"GSAT0102 (GALILEO-FM2)","OBJECT_ID":"2011-060B","EPOCH":"2026-03-29T06:53:02.874048","MEAN_MOTION":1.70475561,"ECCENTRICITY":0.00051862,"INCLINATION":57.0196,"RA_OF_ASC_NODE":343.9307,"ARG_OF_PERICENTER":19.7969,"MEAN_ANOMALY":157.074,"EPHEMERIS_TYPE":0,"CLASSIFICATION_TYPE":"U","NORAD_CAT_ID":37847,"ELEMENT_SET_NO":999,"REV_AT_EPOCH":8976,"BSTAR":0,"MEAN_MOTION_DOT":-9.9e-7,"MEAN_MOTION_DDOT":0},{"OBJECT_NAME":"LUCH 5A","OBJECT_ID":"2011-074B","EPOCH":"2026-04-01T08:48:43.655616","MEAN_MOTION":1.00270606,"ECCENTRICITY":0.0003213,"INCLINATION":8.5601,"RA_OF_ASC_NODE":74.9232,"ARG_OF_PERICENTER":279.4411,"MEAN_ANOMALY":134.4794,"EPHEMERIS_TYPE":0,"CLASSIFICATION_TYPE":"U","NORAD_CAT_ID":37951,"ELEMENT_SET_NO":999,"REV_AT_EPOCH":5228,"BSTAR":0,"MEAN_MOTION_DOT":-5.3e-7,"MEAN_MOTION_DDOT":0},{"OBJECT_NAME":"METEOSAT-10 (MSG-3)","OBJECT_ID":"2012-035B","EPOCH":"2026-04-01T05:39:38.780928","MEAN_MOTION":1.00272409,"ECCENTRICITY":0.0002443,"INCLINATION":4.4907,"RA_OF_ASC_NODE":61.3402,"ARG_OF_PERICENTER":290.7571,"MEAN_ANOMALY":282.4657,"EPHEMERIS_TYPE":0,"CLASSIFICATION_TYPE":"U","NORAD_CAT_ID":38552,"ELEMENT_SET_NO":999,"REV_AT_EPOCH":5008,"BSTAR":0,"MEAN_MOTION_DOT":-1.4e-7,"MEAN_MOTION_DDOT":0},{"OBJECT_NAME":"SARSAT 13 (METOP-B)","OBJECT_ID":"2012-049A","EPOCH":"2026-04-01T11:06:31.161888","MEAN_MOTION":14.21425862,"ECCENTRICITY":0.0002239,"INCLINATION":98.6592,"RA_OF_ASC_NODE":144.4633,"ARG_OF_PERICENTER":179.7697,"MEAN_ANOMALY":180.3482,"EPHEMERIS_TYPE":0,"CLASSIFICATION_TYPE":"U","NORAD_CAT_ID":38771,"ELEMENT_SET_NO":999,"REV_AT_EPOCH":70236,"BSTAR":8.3851e-5,"MEAN_MOTION_DOT":1.4e-6,"MEAN_MOTION_DDOT":0},{"OBJECT_NAME":"GPS BIIF-3","OBJECT_ID":"2012-053A","EPOCH":"2026-03-27T01:15:46.012032","MEAN_MOTION":2.00566077,"ECCENTRICITY":0.0177237,"INCLINATION":53.5685,"RA_OF_ASC_NODE":146.9649,"ARG_OF_PERICENTER":64.9128,"MEAN_ANOMALY":296.9786,"EPHEMERIS_TYPE":0,"CLASSIFICATION_TYPE":"U","NORAD_CAT_ID":38833,"ELEMENT_SET_NO":999,"REV_AT_EPOCH":9779,"BSTAR":0,"MEAN_MOTION_DOT":-4.0e-8,"MEAN_MOTION_DDOT":0},{"OBJECT_NAME":"GSAT0103 (GALILEO-FM3)","OBJECT_ID":"2012-055A","EPOCH":"2026-03-29T16:47:52.467648","MEAN_MOTION":1.70473377,"ECCENTRICITY":0.00058654,"INCLINATION":55.7559,"RA_OF_ASC_NODE":103.7249,"ARG_OF_PERICENTER":290.8335,"MEAN_ANOMALY":69.1577,"EPHEMERIS_TYPE":0,"CLASSIFICATION_TYPE":"U","NORAD_CAT_ID":38857,"ELEMENT_SET_NO":999,"REV_AT_EPOCH":8365,"BSTAR":0,"MEAN_MOTION_DOT":4.4e-7,"MEAN_MOTION_DDOT":0}]
